1 12553U 81059A   94100.22034428  .00000066  00000-0  43231-4 0  8031
2 12553  98.8541 168.1013 0013748  58.3218 301.9294 14.15463546660372
1 12553U 81059A   94101.20997129  .00000045  00000-0  45878-4 0  7806
2 12553  98.8543 169.0844 0013739  55.4958 304.7510 14.15463775660517
1 12553U 81059A   94101.20997129 0.00000070  00000+0  45877-4 0  8106
2 12553  98.8543 169.0843 0013739  55.4957 304.7510 14.15463775660515
1 12553U 81059A   94101.20997129  .00000070  00000-0  45877-4 0  8107
2 12553  98.8543 169.0843 0013739  55.4957 304.7510 14.15463775660515
1 12553U 81059A   94102.19959846  .00000066  00000-0  43231-4 0  7870
2 12553  98.8546 170.0673 0013734  52.6744 307.5677 14.15463876660651
1 12553U 81059A   94102.19959846 0.00000066  00000+0  43231-4 0  7879
2 12553  98.8546 170.0673 0013734  52.6744 307.5677 14.15463876660651
1 12553U 81059A   94103.18922568 0.00000053  00000+0  37021-4 0  7944
2 12553  98.8546 171.0500 0013719  49.7864 310.4505 14.15463888660795
1 12553U 81059A   94103.18922568  .00000053  00000-0  37021-4 0  7945
2 12553  98.8546 171.0500 0013719  49.7864 310.4505 14.15463888660795
1 12553U 81059A   94104.17885268  .00000050  00000-0  35215-4 0  8008
2 12553  98.8548 172.0330 0013706  46.8213 313.4106 14.15463979660938
1 12553U 81059A   94104.17885268 0.00000050  00000+0  35215-4 0  8007
2 12553  98.8548 172.0330 0013706  46.8213 313.4106 14.15463979660938
1 12553U 81059A   94105.16847963  .00000031  00000-0  25824-4 0  8091
2 12553  98.8553 173.0164 0013570  44.6622 315.5647 14.15463902661074
1 12553U 81059A   94105.16847963 0.00000031  00000+0  25824-4 0  8090
2 12553  98.8553 173.0164 0013570  44.6622 315.5647 14.15463902661074
1 12553U 81059A   94105.52191766  .00000063  00000-0  54778-4 0  7818
2 12553  98.8545 173.3664 0013626  45.5867 314.6467 14.15464564661127
1 12553U 81059A   94106.15810513  .00000090  00000-0  55531-4 0  7881
2 12553  98.8542 173.9977 0013633  43.2900 316.9346 14.15464716661218
1 12553U 81059A   94106.15810513 0.00000090  00000+0  55531-4 0  7880
2 12553  98.8542 173.9977 0013633  43.2900 316.9346 14.15464716661218
1 12553U 81059A   94107.14773120 0.00000092  00000+0  56844-4 0  7961
2 12553  98.8544 174.9806 0013633  40.2313 319.9871 14.15464943661350
1 12553U 81059A   94107.14773120  .00000092  00000-0  56844-4 0  7962
2 12553  98.8544 174.9806 0013633  40.2313 319.9871 14.15464943661350
1 12553U 81059A   94108.20804474  .00000084  00000-0  52908-4 0  8045
2 12553  98.8544 176.0336 0013629  37.0078 323.2032 14.15465078661502
1 12553U 81059A   94108.20804474 0.00000084  00000+0  52908-4 0  8044
2 12553  98.8544 176.0336 0013629  37.0078 323.2032 14.15465078661502
1 12553U 81059A   94109.19767056  .00000080  00000-0  50375-4 0  8095
2 12553  98.8545 177.0164 0013622  34.1159 326.0885 14.15465217661641
1 12553U 81059A   94109.19767056 0.00000080  00000+0  50375-4 0  8094
2 12553  98.8545 177.0164 0013622  34.1159 326.0885 14.15465217661641
1 12553U 81059A   94109.62179618  .00000041  00000-0  43827-4 0  7825
2 12553  98.8547 177.4379 0013629  32.7238 327.4777 14.15465158661700
1 12553U 81059A   94110.18729674  .00000060  00000-0  40270-4 0  7865
2 12553  98.8546 177.9992 0013625  30.9929 329.2045 14.15465174661782
1 12553U 81059A   94110.18729674 0.00000060  00000+0  40270-4 0  7864
2 12553  98.8546 177.9992 0013625  30.9929 329.2045 14.15465174661782
1 12553U 81059A   94111.17692249  .00000061  00000-0  40909-4 0  7930
2 12553  98.8547 178.9820 0013609  28.0880 332.1033 14.15465332661922
1 12553U 81059A   94111.17692249 0.00000061  00000+0  40909-4 0  7939
2 12553  98.8547 178.9820 0013609  28.0880 332.1033 14.15465332661922
1 12553U 81059A   94112.16654777  .00000064  00000-0  42405-4 0  7985
2 12553  98.8549 179.9651 0013597  25.2821 334.9019 14.15465503662067
1 12553U 81059A   94112.16654777 0.00000064  00000+0  42405-4 0  7984
2 12553  98.8549 179.9651 0013597  25.2821 334.9019 14.15465503662067
1 12553U 81059A   94113.15617243 0.00000087  00000+0  54078-4 0  8054
2 12553  98.8551 180.9481 0013607  22.2095 337.9670 14.15465918662207
1 12553U 81059A   94113.15617243  .00000087  00000-0  54078-4 0  8055
2 12553  98.8551 180.9481 0013607  22.2095 337.9670 14.15465918662207
1 12553U 81059A   94113.72167224  .00000064  00000-0  55378-4 0  7831
2 12553  98.8550 181.5096 0013586  20.7394 339.4327 14.15466070662280
1 12553U 81059A   94115.13542193  .00000090  00000-0  55770-4 0  7936
2 12553  98.8551 182.9135 0013569  16.6760 343.4855 14.15466376662484
1 12553U 81059A   94115.13542193 0.00000090  00000+0  55770-4 0  7935
2 12553  98.8551 182.9135 0013569  16.6760 343.4855 14.15466376662484
1 12553U 81059A   94116.19573445  .00000069  00000-0  44937-4 0  8016
2 12553  98.8552 183.9667 0013515  13.7697 346.3836 14.15466351662635
1 12553U 81059A   94116.19573445 0.00000069  00000+0  44937-4 0  8015
2 12553  98.8552 183.9667 0013515  13.7697 346.3836 14.15466351662635
1 12553U 81059A   94117.18535948 0.00000053  00000+0  36741-4 0  8085
2 12553  98.8552 184.9495 0013460  10.9997 349.1464 14.15466336662772
1 12553U 81059A   94117.18535948  .00000053  00000-0  36741-4 0  8086
2 12553  98.8552 184.9495 0013460  10.9997 349.1464 14.15466336662772
1 12553U 81059A   94118.10429691  .00000048  00000-0  34197-4 0  8139
2 12553  98.8552 185.8619 0013443   8.4139 351.7259 14.15466414662904
1 12553U 81059A   94118.10429691 0.00000048  00000+0  34197-4 0  8138
2 12553  98.8552 185.8619 0013443   8.4139 351.7259 14.15466414662904
1 12553U 81059A   94118.17498438  .00000024  00000-0  35111-4 0  7849
2 12553  98.8553 185.9325 0013441   8.1869 351.9527 14.15466432662916
1 12553U 81059A   94119.16460861  .00000066  00000-0  43329-4 0  7912
2 12553  98.8554 186.9154 0013447   5.3191 354.8132 14.15466730663052
1 12553U 81059A   94119.16460861 0.00000066  00000+0  43329-4 0  7911
2 12553  98.8554 186.9154 0013447   5.3191 354.8132 14.15466730663052
1 12553U 81059A   94120.15423258 0.00000081  00000+0  51028-4 0  7968
2 12553  98.8555 187.8982 0013431   2.5411 357.5838 14.15467057663190
1 12553U 81059A   94120.15423258  .00000081  00000-0  51028-4 0  7969
2 12553  98.8555 187.8982 0013431   2.5411 357.5838 14.15467057663190
1 12553U 81059A   94121.14385627 0.00000090  00000+0  55610-4 0  8035
2 12553  98.8555 188.8811 0013381 359.8590   0.2577 14.15467345663330
1 12553U 81059A   94121.14385627  .00000090  00000-0  55610-4 0  8036
2 12553  98.8555 188.8811 0013381 359.8590   0.2577 14.15467345663330
1 12553U 81059A   94122.13348033  .00000084  00000-0  52672-4 0  8102
2 12553  98.8554 189.8636 0013327 357.1853   2.9243 14.15467496663479
1 12553U 81059A   94122.13348033 0.00000084  00000+0  52672-4 0  8101
2 12553  98.8554 189.8636 0013327 357.1853   2.9243 14.15467496663479
1 12553U 81059A   94122.20416776  .00000055  00000-0  50823-4 0  7855
2 12553  98.8554 189.9339 0013308 357.0246   3.0842 14.15467470663484
1 12553U 81059A   94123.19379187 0.00000071  00000+0  46033-4 0  7910
2 12553  98.8553 190.9163 0013239 354.2324   5.8692 14.15467561663629
1 12553U 81059A   94123.19379187  .00000071  00000-0  46033-4 0  7911
2 12553  98.8553 190.9163 0013239 354.2324   5.8692 14.15467561663629
1 12553U 81059A   94124.11272861  .00000059  00000-0  39868-4 0  7953
2 12553  98.8552 191.8285 0013201 351.6275   8.4675 14.15467592663756
1 12553U 81059A   94124.11272861 0.00000059  00000+0  39868-4 0  7952
2 12553  98.8552 191.8285 0013201 351.6275   8.4675 14.15467592663756
1 12553U 81059A   94125.17304010  .00000053  00000-0  36819-4 0  8039
2 12553  98.8553 192.8817 0013155 348.6052  11.4825 14.15467664663904
1 12553U 81059A   94125.17304010 0.00000053  00000+0  36819-4 0  8038
2 12553  98.8553 192.8817 0013155 348.6052  11.4825 14.15467664663904
1 12553U 81059A   94126.16266374 0.00000064  00000+0  42467-4 0  8104
2 12553  98.8553 193.8644 0013150 345.7651  14.3161 14.15467919664045
1 12553U 81059A   94126.16266374  .00000064  00000-0  42467-4 0  8105
2 12553  98.8553 193.8644 0013150 345.7651  14.3161 14.15467919664045
1 12553U 81059A   94126.72816265  .00000042  00000-0  44400-4 0  7864
2 12553  98.8553 194.4261 0013106 344.2199  15.8565 14.15468052664121
1 12553U 81059A   94127.22297436  .00000069  00000-0  45092-4 0  7905
2 12553  98.8555 194.9178 0013100 342.7991  17.2735 14.15468132664193
1 12553U 81059A   94127.22297436 0.00000069  00000+0  45092-4 0  7904
2 12553  98.8555 194.9178 0013100 342.7991  17.2735 14.15468132664193
1 12553U 81059A   94128.14191034  .00000076  00000-0  48544-4 0  7952
2 12553  98.8554 195.8301 0013030 340.2838  19.7831 14.15468371664329
1 12553U 81059A   94128.14191034 0.00000076  00000+0  48544-4 0  7951
2 12553  98.8554 195.8301 0013030 340.2838  19.7831 14.15468371664329
1 12553U 81059A   94129.20222120  .00000067  00000-0  43677-4 0  8044
2 12553  98.8552 196.8826 0012913 337.3657  22.6942 14.15468475664472
1 12553U 81059A   94129.20222120 0.00000067  00000+0  43677-4 0  8043
2 12553  98.8552 196.8826 0012913 337.3657  22.6942 14.15468475664472
1 12553U 81059A   94130.12115756  .00000052  00000-0  36333-4 0  8093
2 12553  98.8551 197.7947 0012876 334.7085  25.3457 14.15468483664604
1 12553U 81059A   94130.12115756 0.00000052  00000+0  36333-4 0  8092
2 12553  98.8551 197.7947 0012876 334.7085  25.3457 14.15468483664604
1 12553U 81059A   94131.18146868  .00000013  00000-0  29313-4 0  7870
2 12553  98.8550 198.8475 0012829 331.6522  28.3954 14.15468473664751
1 12553U 81059A   94131.18146868 0.00000038  00000+0  29312-4 0  8168
2 12553  98.8550 198.8474 0012829 331.6522  28.3954 14.15468472664759
1 12553U 81059A   94131.18146868  .00000038  00000-0  29312-4 0  8169
2 12553  98.8550 198.8474 0012829 331.6522  28.3954 14.15468472664759
1 12553U 81059A   94132.17109198 0.00000050  00000+0  35527-4 0  7947
2 12553  98.8551 199.8304 0012808 328.8098  31.2324 14.15468702664891
1 12553U 81059A   94132.17109198  .00000050  00000-0  35527-4 0  7948
2 12553  98.8551 199.8304 0012808 328.8098  31.2324 14.15468702664891
